[Satellite]
VERSION=1.1
NAME=GALAXY 3C (G-3C)
NICKNAME=GALAXY 3C (G-3C)
TLE1=1 27445U 02030A   15054.42308031 -.00000176  00000-0  10000-3 0  9992
TLE2=2 27445   0.0205  75.4847 0001297 281.8090 212.9189  1.00271403 46520
